{
"type": "FeatureCollection",
"name": "korsakov-tags",
"crs": { "type": "name", "properties": { "name": "urn:ogc:def:crs:OGC:1.3:CRS84" } },
"features": [
{ "type": "Feature", "properties": { "name_ru": "Университет", "name_en": "University" }, "geometry": { "type": "Point", "coordinates": [ 142.797506375080104, 46.617472340409485 ] } },
{ "type": "Feature", "properties": { "name_ru": "Поликлиника", "name_en": "Hospital" }, "geometry": { "type": "Point", "coordinates": [ 142.778217291702674, 46.611750873116669 ] } },
{ "type": "Feature", "properties": { "name_ru": "Школа искусств", "name_en": "Art school" }, "geometry": { "type": "Point", "coordinates": [ 142.782468329361592, 46.613366085406135 ] } },
{ "type": "Feature", "properties": { "name_ru": "Сахалин Tech", "name_en": "Sakhalin Tech" }, "geometry": { "type": "Point", "coordinates": [ 142.792471552352794, 46.621560036098316 ] } },
{ "type": "Feature", "properties": { "name_ru": "ТПУ", "name_en": "Transfer hub" }, "geometry": { "type": "Point", "coordinates": [ 142.788712040923144, 46.617755204290525 ] } },
{ "type": "Feature", "properties": { "name_ru": "Школьный кампус", "name_en": "School campus" }, "geometry": { "type": "Point", "coordinates": [ 142.793308475391882, 46.613156201786566 ] } },
{ "type": "Feature", "properties": { "name_ru": "Блокированная застройка", "name_en": "Townhouses" }, "geometry": { "type": "Point", "coordinates": [ 142.800269549558408, 46.618284429518731 ] } },
{ "type": "Feature", "properties": { "name_ru": "Объекты спорта", "name_en": "Sport objects" }, "geometry": { "type": "Point", "coordinates": [ 142.800349256514522, 46.62144142427632 ] } },
{ "type": "Feature", "properties": { "name_ru": "Медиатека", "name_en": "Mediatheque" }, "geometry": { "type": "Point", "coordinates": [ 142.79030618004532, 46.61545575186075 ] } },
{ "type": "Feature", "properties": { "name_ru": "Концертный зал", "name_en": "Concert hall" }, "geometry": { "type": "Point", "coordinates": [ 142.803776655627075, 46.621733391370711 ] } },
{ "type": "Feature", "properties": { "name_ru": "ТПУ", "name_en": "Transfer hub" }, "geometry": { "type": "Point", "coordinates": [ 142.811169475805798, 46.626733083508732 ] } },
{ "type": "Feature", "properties": { "name_ru": "Гостиница", "name_en": "Hotel" }, "geometry": { "type": "Point", "coordinates": [ 142.812511209566907, 46.62631341907489 ] } },
{ "type": "Feature", "properties": { "name_ru": "Студенческий кампус", "name_en": "Student campus" }, "geometry": { "type": "Point", "coordinates": [ 142.807217339232182, 46.624867376487146 ] } },
{ "type": "Feature", "properties": { "name_ru": "Водный Сазалин Tech", "name_en": "Aquatic Sakhalin Tech" }, "geometry": { "type": "Point", "coordinates": [ 142.778420261382706, 46.60448355224068 ] } },
{ "type": "Feature", "properties": { "name_ru": "Городская набережная", "name_en": "City seafront" }, "geometry": { "type": "Point", "coordinates": [ 142.786762695165891, 46.604921842234738 ] } },
{ "type": "Feature", "properties": { "name_ru": "Музей мирового океана", "name_en": "World ocean museum" }, "geometry": { "type": "Point", "coordinates": [ 142.790933912057454, 46.605157843070479 ] } },
{ "type": "Feature", "properties": { "name_ru": "Особая экономическая зона", "name_en": "Special economic zone" }, "geometry": { "type": "Point", "coordinates": [ 142.814489019209987, 46.617192522399947 ] } },
{ "type": "Feature", "properties": { "name_ru": "Аэродром Пушистый", "name_en": "Puschysty airfield" }, "geometry": { "type": "Point", "coordinates": [ 142.813605702691746, 46.621540530320246 ] } },
{ "type": "Feature", "properties": { "name_ru": "Авиагородок", "name_en": "Airtown" }, "geometry": { "type": "Point", "coordinates": [ 142.81591214026713, 46.628179837668107 ] } },
{ "type": "Feature", "properties": { "name_ru": "Городская набережная", "name_en": "City seafront" }, "geometry": { "type": "Point", "coordinates": [ 142.771697241216316, 46.624708626260635 ] } },
{ "type": "Feature", "properties": { "name_ru": "ТПУ", "name_en": "Transfer hub" }, "geometry": { "type": "Point", "coordinates": [ 142.770421339578888, 46.62588818908543 ] } },
{ "type": "Feature", "properties": { "name_ru": "Научная ось", "name_en": "Scientific axis" }, "geometry": { "type": "Point", "coordinates": [ 142.78867654762206, 46.616484674110858 ] } }
]
}
